#dP2024  9 11  0  0  0.00000000      96 __u+U IGS20 FIT  IAC
## 2331 259200.00000000   900.00000000 60564 0.0000000000000
+  133   C01C02C03C04C05C06C07C08C09C10C11C12C13C14C16C19C20
+        C21C22C23C24C25C26C27C28C29C30C32C33C34C35C36C37C38
+        C39C40C41C42C43C44C45C59C60C62E02E03E04E05E06E07E08
+        E09E10E11E12E13E14E15E18E19E21E24E25E26E27E29E30E31
+        E33E34E36G01G02G03G04G05G06G07G08G09G10G11G12G13G14
+        G15G16G17G18G19G20G21G22G23G24G25G26G27G28G29G30G31
+        G32J02J03J04J07R01R02R03R04R05R06R07R08R09R10R11R12
+        R13R14R15R16R17R18R19R20R21R22R23R24R25R26  0  0  0
++        20 19 20 19 19 11 10  9 11 10 12  9  9  9 11  9  9
++         9  9  9  9  9  9  9  9  9  9  9  9  9  9  9  9 10
++        10 10  9  9 10  9  9 20 20 20  4  4  4  4  4  4  4
++         4  4  4  4  4  4  4  4  4  4  4  4  4  4  4  4  4
++         4  5  4  7  4  4  4  3  4  4  4  3  4  4  4  4  4
++         4  3  4  4  4  3  4  4  4  4  4  4  4  4  4  4  4
++         4 10 10 10 18  7  6  6  6  6 15  6  6  6 15  6  6
++        15  6  6  6  6  6  7  7  6  6 14  6  8 10  0  0  0
%c M  cc GPS ccc cccc cccc cccc cccc ccccc ccccc ccccc ccccc
%c cc cc ccc ccc cccc cccc cccc cccc ccccc ccccc ccccc ccccc
%f  0.0000000  0.000000000  0.00000000000  0.000000000000000
%f  0.0000000  0.000000000  0.00000000000  0.000000000000000
%i    0    0    0    0      0      0      0      0         0
%i    0    0    0    0      0      0      0      0         0
/* INFORMATION & ANALYSIS CENTER (IAC)            RAPID DATA
/* S/V CLOCKS ARE ALIGNED TO GNSS TIME                      
/* G:C1WC2W R:C1PC2P E:C1XC5X C:C2IC6I J:C1CC2S             
/* PCV:IGS20_2317 OL/AL:FES2004  NONE     YN ORB:CoN CLK:CoN
*  2024 09 11 15 45  0.00000000
PC01 -34354.613803  24432.117964  -1106.427924    921.860167
PC02   4447.234011  41895.533494  -1590.225210    899.952040
PC03 -14671.153865  39513.172532  -1163.224121    897.658021
PC04 -39679.854619  14305.481348  -1021.628995    420.147167
PC05  21864.566325  36016.933245   -947.380765   -379.016739
PC06 -15589.856528  37967.447005   9071.088001    210.938389
PC07  -3634.972216  33046.586839  26190.265765   -382.036723
PC08 -13067.233792  19373.276713 -35167.445212   -529.790190
PC09  -9616.252533  36845.826824  17860.348831   -315.380779
PC10   3367.658512  36134.156145  22304.041363   -172.490689
PC11   5180.499916 -27383.936881  -1141.264599    757.400030
PC12  14387.115940 -15945.031958 -17770.426069   -264.997357
PC13  -3373.616004  21542.940899 -35937.384279    434.527380
PC14   -853.744894 -18368.078604  20974.118229   -185.717459
PC16 -18136.984240  37457.452409   5712.183686   -796.073772
PC19  10331.916035  20812.052116 -15460.379271   -934.915862
PC20  -6942.371598  14146.679317 -23035.159436   -908.862663
PC21  21819.992835   1924.922020  17305.864103   -932.326583
PC22  22800.520564  16045.531623   1450.373016    119.966176
PC23 -18156.001011  -7745.661341 -19721.935386   -832.427666
PC24  19307.526688 -16885.945569 -10971.103340    831.910190
PC25    680.376286 -17512.841187 -21721.145242    503.325360
PC26  26258.299447  -7032.805168   6210.038335   -347.298654
PC27 -16253.629768   6273.663274  21781.462706    367.451137
PC28 -13428.230962 -12290.270733  21156.298882    284.483986
PC29   2113.459363  27096.987074  -6344.374211    334.047477
PC30 -10388.097471  23063.125178  11765.761772   -199.181058
PC32 -21880.138788  -1840.627552 -17211.845044   -730.640671
PC33 -10324.681833 -20733.872233  15545.052625   -970.863103
PC34   9501.903387 -24143.859886 -10300.570358    518.901787
PC35  13771.241324  12354.253690 -20895.738135    263.751173
PC36   -557.926995  17377.969109  21854.116428    180.832181
PC37 -26438.562721   6439.755143  -6245.002407   -899.146304
PC38 -21921.923505  20073.398751 -29932.703979    178.752897
PC39 -19868.429572  37018.611209  -1090.885043     -9.827789
PC40  -6812.027977  29105.906677  29894.615704    -90.621944
PC41 -22513.838716 -16466.838647   -471.323650   -911.383757
PC42   8773.418140 -12947.294388  23142.907580   -475.548413
PC43  -1465.266741 -27345.592439   5396.123930     85.393447
PC44  16164.776269  -6730.667835 -21746.598845    590.311016
PC45  17663.785786   8073.842403  20029.614064   -130.078410
PC59 -32260.024567  27102.398732  -1748.764317     -0.289910
PC60   7260.615350  41499.883267  -1773.185112      0.031819
PC62 -39597.309343  14469.733396   1380.803798     -0.350133
PE02 -23066.955016 -13751.853330 -12463.537388    158.484463
PE03 -16088.407364 -21714.721879 -12070.497180   -139.703690
PE04  17849.813535   1658.235145  23555.510213    -30.496259
PE05  -4895.164475 -28513.599687   6248.783635   4783.271719
PE06  14667.183866  -9459.216035  23889.834201    -24.718203
PE07  -9437.473844  18400.959279 -21183.774531   -141.500675
PE08 -17881.877812  -2646.903466 -23443.717334   -333.885681
PE09   9383.629147 -18267.017251  21306.967923   -585.996798
PE10  22800.694507 -16102.312728  -9832.675762   -655.707481
PE11  19525.503256 -22243.131123    468.547297   1708.988597
PE12  22484.616243  -8248.151703 -17402.922499  -1205.725944
PE13 -19782.486989  22021.516754     98.491458    -24.683699
PE14  -4148.799890  25368.566403  14137.857360    220.001779
PE15 -22288.211331   7690.060287  17903.487970   -126.491851
PE18  12555.946372 -14930.828417 -19368.464440    535.781488
PE19  15146.391965  23183.845578  10455.779569    605.167618
PE21   4317.272939  17521.758370  23468.247044   -616.241697
PE24  17783.108147 -11082.960627 -20908.641118   -981.679533
PE25  -3820.517884 -17486.138811 -23566.020812      8.965619
PE26  -5223.520381  23142.015266 -17704.286320   -272.211246
PE27 -17630.594795  11159.755365  21005.032239   -449.813351
PE29   5065.033524  28570.357516  -5834.160119    -29.447233
PE30 -28897.986806  -1764.265347   6185.641016   -706.128040
PE31  28895.305308   1709.263413  -6173.832856    -35.532328
PE33  11293.006371  11334.981615 -24900.431280     15.249344
PE34 -11704.370099 -10891.403333  24906.467461   -133.733677
PE36   5784.659326 -23225.470861  17415.365464   -281.883217
PG01 -24717.078148  -8398.126076  -6146.003304    199.875281
PG02 -14262.649445  22171.370596   -446.215702   -360.231912
PG03  -8711.654286  13118.473746 -21536.209714    534.036300
PG04  -3078.117313  21760.352183 -14798.115348    441.710306
PG05  23034.906114  -5826.484976  11757.286761   -186.246102
PG06  14085.391841   5384.553608 -21811.556364     37.933064
PG07   -724.263441  20573.547523  17051.508758    -39.153295
PG08 -10814.449970  12195.425215  20777.756959    348.869813
PG09   6349.845574  25123.312549  -5769.159345    352.147852
PG10 -21961.686625 -10661.084278  11079.019339   -121.955404
PG11  20545.832725  -8385.336242 -14516.287243   -733.373148
PG12  13008.240834 -11660.228311 -20272.462506   -537.277201
PG13  14537.269936  -3110.055118  21785.935604    675.911359
PG14  18855.360965  13123.033629  13567.739642    493.231162
PG15   8961.861832 -13996.025155  20168.838501    203.083096
PG16 -25356.943699     -6.908945   8292.145454   -183.824800
PG17  13593.483360  20481.874929  -9414.322638    629.860960
PG18   1202.600567 -20012.325883  17326.105473   -652.702024
PG19  15820.940814  13882.087478 -16604.637794    536.710665
PG20  26407.727659  -1646.777530   1036.743359    370.745371
PG21 -16792.194476  19255.381534   5170.076901    101.947058
PG22  23344.235265  10508.293465   6869.464019    -60.805564
PG23 -10570.279992 -14512.071446  19675.025058    317.852706
PG24  14454.474400 -21995.262864    436.302326   -486.752631
PG25   -726.204762 -15763.045621 -21723.749004    499.601720
PG26 -26003.514404  -4793.720783  -4303.047114     81.205839
PG27 -15860.076401    152.283581  21074.018602    -33.804887
PG28 -13198.146400  -7663.472399 -21750.513952   -407.311982
PG29  -2007.435232 -25142.476738  -8163.729173   -578.528630
PG30   8747.678623  13887.900029  20991.960072   -323.253195
PG31 -19715.758472   4173.940630 -17722.898401   -224.824392
PG32 -15531.725151 -18931.679672 -10322.414049   -598.137770
PJ02 -29004.539602  21438.224587  27023.569246     -0.992980
PJ03 -33266.150982  25227.112279  11285.042680     -2.901480
PJ04 -22323.477925  22288.853554 -22970.674164     22.309555
PJ07 -25392.393941  33673.225610     -8.973548      0.006235
PR01  15276.488828   1836.058602  20341.812141     97.455077
PR02   3119.647164 -12033.611901  22323.797128    -24.613957
PR03 -10954.906383 -19933.893923  11651.836100    107.350126
PR04 -18410.399283 -16932.013429  -5034.138870    254.201168
PR05 -16226.999180  -4910.462540 -19065.600866    137.508208
PR06  -1700.137631  13065.484895 -21855.108526   -180.006310
PR07  11316.795559  19955.970704 -11057.978321     90.695763
PR08  18634.422259  16549.989706   5390.837373     -6.391982
PR09 -16139.796665  12178.409672  15519.374183    208.554814
PR10  -1437.331262  11570.655451  22691.023415   -215.692756
PR11  16908.747283   4992.755462  18456.117367     12.134786
PR12  24947.610448  -5141.009059   1278.326519     44.725945
PR13  18522.205812 -11195.481052 -13507.151105    -51.297895
PR14  -1104.171140 -11174.352420 -22887.975597     26.903139
PR15 -18234.473147  -4329.032422 -17276.247649     75.981287
PR16 -24916.538585   5177.308730  -1409.854036     29.045876
PR17   1761.468534 -22727.388321  11403.754959    121.078586
PR18  -6801.768439 -11065.492661  21978.041337    161.541969
PR19 -12040.985632   4106.459672  22113.544304   -290.990521
PR20 -11397.785762  21674.087397   7099.873939   -118.940374
PR21  -2424.218844  23017.962597 -10762.299703   -133.585367
PR22   7489.939465  10171.197359 -22132.566188     49.347928
PR23  12495.497244  -7390.392024 -20976.506979   -132.478959
PR24  10322.364822 -22387.672963  -6478.052940    -71.593255
PR25  -2309.007940  22606.037275 -11611.485599   -100.718268
PR26  18446.573191  17224.947075   3781.119552     23.618106
EOF
